[{"OBJECT_NAME":"STARLINK-5345","OBJECT_ID":"2023-065Q","EPOCH":"2026-03-09T11:27:28.546272","MEAN_MOTION":15.02531997,"ECCENTRICITY":0.00013863,"INCLINATION":43.0037,"RA_OF_ASC_NODE":211.422,"ARG_OF_PERICENTER":272.0276,"MEAN_ANOMALY":88.0407,"EPHEMERIS_TYPE":0,"CLASSIFICATION_TYPE":"U","NORAD_CAT_ID":56517,"ELEMENT_SET_NO":999,"REV_AT_EPOCH":15659,"BSTAR":-1.5983169e-5,"MEAN_MOTION_DOT":-4.2e-6,"MEAN_MOTION_DDOT":0},{"OBJECT_NAME":"COSMOS 2251 DEB","OBJECT_ID":"1993-036HX","EPOCH":"2026-03-09T21:31:03.673056","MEAN_MOTION":15.04193551,"ECCENTRICITY":0.00046843,"INCLINATION":74.0171,"RA_OF_ASC_NODE":332.1487,"ARG_OF_PERICENTER":332.3762,"MEAN_ANOMALY":27.7177,"EPHEMERIS_TYPE":0,"CLASSIFICATION_TYPE":"U","NORAD_CAT_ID":34036,"ELEMENT_SET_NO":999,"REV_AT_EPOCH":89876,"BSTAR":0.0040391987,"MEAN_MOTION_DOT":0.00056541,"MEAN_MOTION_DDOT":0}]
